#dP2024  7 28  0  0  0.00000000      96 __u+U IGS20 FIT  IAC
## 2325      0.00000000   900.00000000 60519 0.0000000000000
+  133   C01C02C03C04C05C06C07C08C09C10C11C12C13C14C16C19C20
+        C21C22C23C24C25C26C27C28C29C30C32C33C34C35C36C37C38
+        C39C40C41C42C43C44C45C59C60C62E02E03E04E05E06E07E08
+        E09E10E11E12E13E14E15E18E19E21E24E25E26E27E29E30E31
+        E33E34E36G01G02G03G04G05G06G07G08G09G10G11G12G13G14
+        G15G16G17G18G19G20G21G22G23G24G25G26G27G28G29G30G31
+        G32J02J03J04J07R01R02R03R04R05R06R07R08R09R10R11R12
+        R13R14R15R16R17R18R19R20R21R22R23R24R25R26  0  0  0
++         0 16 16 17 16  9  9  9  9  9  8  8  9  8  9  7  7
++         7  7  7  7  7  7  7  7  7  7  7  7  7  7  7  7  8
++         8  8  7  7  7  7  0 17 17 17  4  4  5  4  5  4  4
++         4  4  4  4  4  4  4  4  4  4  4  4  4  4  5  4  5
++         4  4  4  6  4  3  4  4  4  4  4  4  4  4  4  4  4
++         4  4  4  4  4  4  4  4  4  4  3  4  4  3  4  4  4
++         3 10 10 11  0  7  6  6  6  6 15  6  6  6 15  6  6
++         8  6  6  6  6  6  7  8  6  6 15  6  8  8  0  0  0
%c M  cc GPS ccc cccc cccc cccc cccc ccccc ccccc ccccc ccccc
%c cc cc ccc ccc cccc cccc cccc cccc ccccc ccccc ccccc ccccc
%f  0.0000000  0.000000000  0.00000000000  0.000000000000000
%f  0.0000000  0.000000000  0.00000000000  0.000000000000000
%i    0    0    0    0      0      0      0      0         0
%i    0    0    0    0      0      0      0      0         0
/* INFORMATION & ANALYSIS CENTER (IAC)            RAPID DATA
/* S/V CLOCKS ARE ALIGNED TO GNSS TIME                      
/* G:C1WC2W R:C1PC2P E:C1XC5X C:C2IC6I J:C1CC2S             
/* PCV:IGS20_2317 OL/AL:FES2004  NONE     YN ORB:CoN CLK:CoN
*  2024 07 28 22 15  0.00000000
PC01      0.000000      0.000000      0.000000 999999.999999
PC02   4418.652959  41859.979842  -1907.382800    889.156179
PC03 -14694.744113  39487.314527   -934.441461    637.461157
PC04 -39623.605519  14460.437467    285.609849   -687.459589
PC05  21912.032384  35971.551519  -1611.697050   -566.625348
PC06  -2711.897691  35801.291501 -21786.321141    632.745974
PC07 -11911.344444  26711.088952  30430.432647   -509.493075
PC08 -17127.628632  36200.911404 -13577.595798   -364.183618
PC09   4893.114165  39749.049288 -11632.722965    -99.278684
PC10  -3554.542060  27776.050665  31840.689977    -99.028810
PC11  -5917.434882  15610.430876  22431.351391    685.204853
PC12 -19646.011517  -1458.312649  19796.473174   -265.141067
PC13 -11952.185967  36413.839228 -17753.284733    438.483253
PC14 -16688.236919  15620.852554 -15961.598674    914.634855
PC16  -2970.898729  35074.803144 -22608.936879   -689.629866
PC19   7003.326585 -16655.897585  21290.273674   -921.393137
PC20  22869.062410 -12774.637435   9675.536665   -738.302810
PC21 -26377.335396    658.227423   9042.874540   -950.427213
PC22 -13892.823236 -11238.791486  21413.308617     75.140245
PC23   6869.489919  21245.233888  16753.427821   -805.552796
PC24 -15976.652949  17098.598125 -15227.144435    870.139299
PC25  -5880.254553  27272.883147    974.797104    463.799480
PC26 -16166.882714  -2559.365248 -22617.113648   -326.398089
PC27  22559.702832   9409.096583 -13483.691487    347.170549
PC28  18852.512707  20533.810357   1400.463187    267.784414
PC29  -2671.097928 -20562.148734 -18679.373828    314.405561
PC30  15043.465049  -7457.235860 -22297.068874   -146.915941
PC32  26366.230508   -806.277121  -9132.024505   -686.178597
PC33  -6956.161880  16718.804744 -21232.237991   -963.349201
PC34 -13794.430302   8940.012973  22537.547806    487.134311
PC35 -19370.050324 -20025.740147  -1865.350346    301.384272
PC36   6316.676884 -27147.446855  -1223.689928    147.532999
PC37  16093.673178   2979.544091  22617.221631   -916.249680
PC38 -21833.087213  36014.463847  -3286.274862    169.975284
PC39  -7045.333514  30392.361296 -28173.385461     -9.334650
PC40 -17345.555368  19989.653165  32763.325816    -82.661070
PC41  13080.203591  11644.542322 -21686.331893   -934.926148
PC42 -23857.834955  12000.540383  -7998.272198   -457.218015
PC43   1668.095181  20241.268595  19119.958635     80.430589
PC44 -22996.800592  -8635.462216  13245.427973    546.774855
PC45      0.000000      0.000000      0.000000 999999.999999
PC59 -32308.169390  27050.038729  -1239.678197      0.109485
PC60   7285.591024  41530.462306   -893.095198     -0.401223
PC62 -39595.452653  14440.698956    692.938770     -0.872230
PE02  -1716.678574  20604.290538  21187.313822    146.959780
PE03   9584.798399  18755.388180 -20808.965310   -130.015791
PE04 -25977.709605 -13127.979244   5366.458776      5.228643
PE05 -12046.166219  13189.720848 -23599.051366   4770.127946
PE06 -28456.112949  -7020.881623  -4153.567541     -9.686705
PE07  26916.256652    380.445869  12332.121994   -133.600993
PE08  25569.936330  13567.766528  -6230.954774   -310.256390
PE09 -26903.710984   -508.621737 -12311.153754   -532.405117
PE10 -16600.736103  -8148.015013  23099.344679   -644.114338
PE11 -15568.148229   4081.699343  24826.956165   2225.196479
PE12 -15154.338115 -17856.303862  18099.627814  -1143.480631
PE13  15628.625344  -3421.171310 -24905.334534    -23.366232
PE14  15213.807189  19188.615775  15216.529480    137.761514
PE15  14950.495588  18400.001919 -17722.327530   -117.566533
PE18  -1491.082920 -19140.315937 -20451.023621    371.876056
PE19  -7391.125034 -18604.402873  21808.831002    365.471766
PE21  18483.151766 -22031.002899  -7018.431867   -607.993103
PE24 -25078.802239  10284.750121 -11920.935483   -899.643149
PE25 -18756.736952  21917.937867   6638.356384      7.401452
PE26   6952.154115 -23245.598097 -16950.251594    525.674430
PE27  25035.184328 -10534.778182  11769.316204   -412.154510
PE29  11678.040090 -13537.220024  23586.314573    -18.876110
PE30  16729.892117   7138.649152  23346.908300   -554.474358
PE31 -16749.023434  -7010.001448 -23365.493293    -30.796158
PE33  -5208.462140 -29131.334958   -219.641290     14.158233
PE34   5572.298280  29078.057084   -269.068641   -125.282997
PE36  -7174.415696  22831.058569  17415.642314   -261.404105
PG01   -905.522342 -18096.010814 -19682.898593    232.861806
PG02 -15912.926243   -320.072232  21779.990075   -390.001387
PG03 -21729.585561  10994.036170  10294.675607    477.633882
PG04 -23765.236212    716.577093 -11966.711652    413.150568
PG05  16537.478071   3214.753410 -20736.994104   -181.329170
PG06   4780.327895  26029.073355   1474.309092    133.298759
PG07  -7980.515877  18286.716833 -16774.714531    -61.180497
PG08 -26056.142462  -6181.566066    832.564627    293.637699
PG09 -15279.147446   9952.885705 -19416.636537    291.697009
PG10   5444.397340 -20127.273278  16461.592796    -78.404734
PG11  12260.149193  20308.985540 -11985.126106   -712.786465
PG12  22269.676274  -7321.656666  12161.740350   -525.992166
PG13  21930.290012  14256.740269  -5511.898181    667.471764
PG14  -9173.203058  21070.042043  13166.666328    459.613869
PG15  26438.591501   3283.484287    448.721645    186.311726
PG16 -13943.715095  -8107.568886 -21501.520948   -223.845777
PG17   -372.076365  15794.192282  21749.773460    667.726770
PG18   7654.047236 -18849.248021 -16943.192157   -641.176451
PG19   9735.155141  17275.031815  17704.895902    516.943553
PG20   9590.660653  12471.181710 -21350.709587    372.267679
PG21 -17035.997846  -7108.433343  19871.377776    106.142460
PG22  -2403.685072  18866.397116  19074.762995    -45.012945
PG23  15382.297035 -20752.034675   5698.904703    284.563632
PG24  16688.974041   2728.643706  20137.097752   -484.819716
PG25  20175.391676 -16720.107223   3041.802829    498.912915
PG26  -3794.942350 -17595.518740 -19571.618574    111.326489
PG27 -21437.274709 -13120.770687  -9508.786421    -32.110845
PG28  -4280.893378 -25929.748249   3831.475612   -350.347177
PG29  18802.100667  -5918.665692 -17907.809833   -587.148417
PG30   -638.690782  24906.027160  -8658.279446   -349.780892
PG31 -10686.600341 -22812.598843  -7986.217798   -226.390108
PG32  -2735.422713 -16126.130546  21177.632128   -609.524030
PJ02 -31089.842600  28211.997400   9083.609027     -0.649662
PJ03 -25709.283361  24814.449490  27544.098822     -1.426722
PJ04 -30618.836340  23054.883763 -12303.315211     50.805265
PJ07 -25177.164533  33823.747424    -31.693045 999999.999999
PR01 -25376.981312   2106.484407   1368.693306     92.803696
PR02 -19083.276882   8217.312948 -14802.605550    -23.879783
PR03  -1686.876469  10912.869940 -22953.993621    104.602262
PR04  15996.363224   7407.813426 -18404.418176    247.328201
PR05  25183.849963    162.100193  -3969.024061    135.221989
PR06  17645.055486  -9485.579231  15765.541291   -173.809578
PR07    824.689122 -10898.915773  23082.524654     87.664139
PR08 -16288.034397  -7309.989476  18290.803972     -6.196626
PR09  13413.321038 -19893.025169   8809.591102    200.279566
PR10   7482.473207 -23557.828230  -6142.987260   -196.164806
PR11  -3678.944963 -15034.798176 -20266.494039     16.712434
PR12 -13286.694085   4219.193311 -21333.252240     42.994119
PR13 -14135.638923  17990.335822 -11285.679151    -49.903027
PR14  -6165.968077  23277.675522   8397.831970     26.737467
PR15   4759.879103  13691.797326  21011.725455     77.421383
PR16  13108.940900  -4126.219983  21514.150535     27.786727
PR17   6446.553129  20590.798260  13651.575609    108.719779
PR18  14855.257115  20588.095078  -2237.005599    154.282818
PR19  15858.322061  12136.101156 -15882.499375   -285.536853
PR20   7166.895483  -8044.833107 -23117.821951   -116.856958
PR21  -5932.779943 -20400.612639 -14092.434899   -121.386652
PR22 -14804.511133 -20489.009731   3468.724116     80.175984
PR23 -15599.276809  -9103.627332  17999.446504   -128.167048
PR24  -6841.296206   9105.663773  22839.801640    -65.577089
PR25  -5686.304662 -20994.536956 -13300.248230    -98.575879
PR26 -15044.032481  -7695.846698  19115.923920      6.751977
EOF
